{"type": "FeatureCollection", "features": [ {"type": "Feature", "properties": {"norad_id": 34375, "name": "IRIDIUM 33 DEB", "group": "iridium-33-debris", "lat": -48.251288097426276, "lon": 7.963137763870382, "alt_km": 840.6297109961743, "timestamp": "2025-12-09T14:52:26.547592+00:00", "meta": {"OBJECT_NAME": "IRIDIUM 33 DEB", "OBJECT_ID": "1997-051FT", "EPOCH": "2025-12-09T01:01:12.013824", "MEAN_MOTION": 14.17981407, "ECCENTRICITY": 0.01030348, "INCLINATION": 86.4326, "RA_OF_ASC_NODE": 184.1877, "ARG_OF_PERICENTER": 138.3544, "MEAN_ANOMALY": 23.8755, "EPHEMERIS_TYPE": 0, "CLASSIFICATION_TYPE": "U", "NORAD_CAT_ID": 34375, "ELEMENT_SET_NO": 999, "REV_AT_EPOCH": 86659, "BSTAR": 0.00056641223, "MEAN_MOTION_DOT": 1.241e-05, "MEAN_MOTION_DDOT": 0}, "tle": {"line1": "1 34375U 97051FT  25343.04250016  .00001241  00000+0  56641-3 0  9991", "line2": "2 34375  86.4326 184.1877 0103034 138.3544  23.8755 14.17981407866594"}}, "geometry": {"type": "Point", "coordinates": [7.963137763870382, -48.251288097426276]}}, {"type": "Feature", "properties": {"norad_id": 34376, "name": "IRIDIUM 33 DEB", "group": "iridium-33-debris", "lat": 79.72967980546638, "lon": 167.00874261120103, "alt_km": 673.7664252411023, "timestamp": "2025-12-09T14:52:26.547603+00:00", "meta": {"OBJECT_NAME": "IRIDIUM 33 DEB", "OBJECT_ID": "1997-051FU", "EPOCH": "2025-12-09T01:16:56.150688", "MEAN_MOTION": 14.62483707, "ECCENTRICITY": 0.00267298, "INCLINATION": 86.2984, "RA_OF_ASC_NODE": 8.1966, "ARG_OF_PERICENTER": 179.1594, "MEAN_ANOMALY": 180.9667, "EPHEMERIS_TYPE": 0, "CLASSIFICATION_TYPE": "U", "NORAD_CAT_ID": 34376, "ELEMENT_SET_NO": 999, "REV_AT_EPOCH": 87953, "BSTAR": 0.0016761111, "MEAN_MOTION_DOT": 8.56e-05, "MEAN_MOTION_DDOT": 0}, "tle": {"line1": "1 34376U 97051FU  25343.05342767  .00008560  00000+0  16761-2 0  9997", "line2": "2 34376  86.2984   8.1966 0026729 179.1594 180.9667 14.62483707879535"}}, "geometry": {"type": "Point", "coordinates": [167.00874261120103, 79.72967980546638]}}, {"type": "Feature", "properties": {"norad_id": 34486, "name": "IRIDIUM 33 DEB", "group": "iridium-33-debris", "lat": -55.28266270504377, "lon": 8.242772912190505, "alt_km": 597.0807504663035, "timestamp": "2025-12-09T14:52:26.547613+00:00", "meta": {"OBJECT_NAME": "IRIDIUM 33 DEB", "OBJECT_ID": "1997-051GB", "EPOCH": "2025-12-09T02:32:24.432576", "MEAN_MOTION": 14.95535062, "ECCENTRICITY": 0.00133768, "INCLINATION": 86.394, "RA_OF_ASC_NODE": 13.7018, "ARG_OF_PERICENTER": 124.1656, "MEAN_ANOMALY": 295.4203, "EPHEMERIS_TYPE": 0, "CLASSIFICATION_TYPE": "U", "NORAD_CAT_ID": 34486, "ELEMENT_SET_NO": 999, "REV_AT_EPOCH": 88932, "BSTAR": 0.0024815535, "MEAN_MOTION_DOT": 0.00027645, "MEAN_MOTION_DDOT": 0}, "tle": {"line1": "1 34486U 97051GB  25343.10583834  .00027645  00000+0  24816-2 0  9992", "line2": "2 34486  86.3940  13.7018 0013376 124.1656 295.4203 14.95535062889327"}}, "geometry": {"type": "Point", "coordinates": [8.242772912190505, -55.28266270504377]}}, {"type": "Feature", "properties": {"norad_id": 34487, "name": "IRIDIUM 33 DEB", "group": "iridium-33-debris", "lat": -8.873499917884192, "lon": -165.70737503760066, "alt_km": 737.3307335202162, "timestamp": "2025-12-09T14:52:26.547624+00:00", "meta": {"OBJECT_NAME": "IRIDIUM 33 DEB", "OBJECT_ID": "1997-051GC", "EPOCH": "2025-12-09T02:36:24.393888", "MEAN_MOTION": 14.43208677, "ECCENTRICITY": 0.00324935, "INCLINATION": 86.3437, "RA_OF_ASC_NODE": 13.9406, "ARG_OF_PERICENTER": 139.8025, "MEAN_ANOMALY": 274.7382, "EPHEMERIS_TYPE": 0, "CLASSIFICATION_TYPE": "U", "NORAD_CAT_ID": 34487, "ELEMENT_SET_NO": 999, "REV_AT_EPOCH": 88196, "BSTAR": 0.00027735172, "MEAN_MOTION_DOT": 9.58e-06, "MEAN_MOTION_DDOT": 0}, "tle": {"line1": "1 34487U 97051GC  25343.10861567  .00000958  00000+0  27735-3 0  9997", "line2": "2 34487  86.3437  13.9406 0032493 139.8025 274.7382 14.43208677881968"}}, "geometry": {"type": "Point", "coordinates": [-165.70737503760066, -8.873499917884192]}}, {"type": "Feature", "properties": {"norad_id": 34488, "name": "IRIDIUM 33 DEB", "group": "iridium-33-debris", "lat": -82.75049958941881, "lon": -82.99616200665132, "alt_km": 495.9988249361213, "timestamp": "2025-12-09T14:52:26.547634+00:00", "meta": {"OBJECT_NAME": "IRIDIUM 33 DEB", "OBJECT_ID": "1997-051GD", "EPOCH": "2025-12-08T21:57:07.266816", "MEAN_MOTION": 15.27997887, "ECCENTRICITY": 0.0014352, "INCLINATION": 86.3246, "RA_OF_ASC_NODE": 307.7053, "ARG_OF_PERICENTER": 57.4212, "MEAN_ANOMALY": 302.8418, "EPHEMERIS_TYPE": 0, "CLASSIFICATION_TYPE": "U", "NORAD_CAT_ID": 34488, "ELEMENT_SET_NO": 999, "REV_AT_EPOCH": 89181, "BSTAR": 0.0052155, "MEAN_MOTION_DOT": 0.00145336, "MEAN_MOTION_DDOT": 0}, "tle": {"line1": "1 34488U 97051GD  25342.91466744  .00145336  00000+0  52155-2 0  9997", "line2": "2 34488  86.3246 307.7053 0014352  57.4212 302.8418 15.27997887891815"}}, "geometry": {"type": "Point", "coordinates": [-82.99616200665132, -82.75049958941881]}}, {"type": "Feature", "properties": {"norad_id": 34492, "name": "IRIDIUM 33 DEB", "group": "iridium-33-debris", "lat": 66.1686258182001, "lon": 147.86195972051905, "alt_km": 894.8839568726426, "timestamp": "2025-12-09T14:52:26.547645+00:00", "meta": {"OBJECT_NAME": "IRIDIUM 33 DEB", "OBJECT_ID": "1997-051GH", "EPOCH": "2025-12-07T23:50:44.784960", "MEAN_MOTION": 14.25534668, "ECCENTRICITY": 0.0189621, "INCLINATION": 86.4724, "RA_OF_ASC_NODE": 336.5463, "ARG_OF_PERICENTER": 253.6464, "MEAN_ANOMALY": 161.0806, "EPHEMERIS_TYPE": 0, "CLASSIFICATION_TYPE": "U", "NORAD_CAT_ID": 34492, "ELEMENT_SET_NO": 999, "REV_AT_EPOCH": 84991, "BSTAR": 0.0068533726, "MEAN_MOTION_DOT": 0.00019616, "MEAN_MOTION_DDOT": 0}, "tle": {"line1": "1 34492U 97051GH  25341.99357390  .00019616  00000+0  68534-2 0  9994", "line2": "2 34492  86.4724 336.5463 0189621 253.6464 161.0806 14.25534668849919"}}, "geometry": {"type": "Point", "coordinates": [147.86195972051905, 66.1686258182001]}}, {"type": "Feature", "properties": {"norad_id": 34497, "name": "IRIDIUM 33 DEB", "group": "iridium-33-debris", "lat": -26.874758788254493, "lon": 51.8442277309853, "alt_km": 751.5889293611799, "timestamp": "2025-12-09T14:52:26.547655+00:00", "meta": {"OBJECT_NAME": "IRIDIUM 33 DEB", "OBJECT_ID": "1997-051GN", "EPOCH": "2025-12-09T05:09:24.196896", "MEAN_MOTION": 14.27438084, "ECCENTRICITY": 0.00791646, "INCLINATION": 86.2781, "RA_OF_ASC_NODE": 53.9075, "ARG_OF_PERICENTER": 351.0726, "MEAN_ANOMALY": 63.0332, "EPHEMERIS_TYPE": 0, "CLASSIFICATION_TYPE": "U", "NORAD_CAT_ID": 34497, "ELEMENT_SET_NO": 999, "REV_AT_EPOCH": 86833, "BSTAR": 0.00097039794, "MEAN_MOTION_DOT": 2.479e-05, "MEAN_MOTION_DDOT": 0}, "tle": {"line1": "1 34497U 97051GN  25343.21486339  .00002479  00000+0  97040-3 0  9996", "line2": "2 34497  86.2781  53.9075 0079164 351.0726  63.0332 14.27438084868337"}}, "geometry": {"type": "Point", "coordinates": [51.8442277309853, -26.874758788254493]}}, {"type": "Feature", "properties": {"norad_id": 34508, "name": "IRIDIUM 33 DEB", "group": "iridium-33-debris", "lat": 8.363064277718152, "lon": 104.50037474585564, "alt_km": 812.5828184676566, "timestamp": "2025-12-09T14:52:26.547666+00:00", "meta": {"OBJECT_NAME": "IRIDIUM 33 DEB", "OBJECT_ID": "1997-051GZ", "EPOCH": "2025-12-08T20:28:07.821120", "MEAN_MOTION": 14.38371181, "ECCENTRICITY": 0.0065865, "INCLINATION": 86.3703, "RA_OF_ASC_NODE": 104.2908, "ARG_OF_PERICENTER": 185.485, "MEAN_ANOMALY": 174.5635, "EPHEMERIS_TYPE": 0, "CLASSIFICATION_TYPE": "U", "NORAD_CAT_ID": 34508, "ELEMENT_SET_NO": 999, "REV_AT_EPOCH": 87253, "BSTAR": 0.0019764, "MEAN_MOTION_DOT": 6.195e-05, "MEAN_MOTION_DDOT": 0}, "tle": {"line1": "1 34508U 97051GZ  25342.85286830  .00006195  00000+0  19764-2 0  9997", "line2": "2 34508  86.3703 104.2908 0065865 185.4850 174.5635 14.38371181872537"}}, "geometry": {"type": "Point", "coordinates": [104.50037474585564, 8.363064277718152]}}, {"type": "Feature", "properties": {"norad_id": 34521, "name": "IRIDIUM 33 DEB", "group": "iridium-33-debris", "lat": -85.06461350819869, "lon": -100.92763865008786, "alt_km": 689.1687853029161, "timestamp": "2025-12-09T14:52:26.547676+00:00", "meta": {"OBJECT_NAME": "IRIDIUM 33 DEB", "OBJECT_ID": "1997-051HN", "EPOCH": "2025-12-09T03:48:43.131456", "MEAN_MOTION": 14.63316312, "ECCENTRICITY": 0.00012181, "INCLINATION": 86.3799, "RA_OF_ASC_NODE": 32.1245, "ARG_OF_PERICENTER": 240.0479, "MEAN_ANOMALY": 120.0612, "EPHEMERIS_TYPE": 0, "CLASSIFICATION_TYPE": "U", "NORAD_CAT_ID": 34521, "ELEMENT_SET_NO": 999, "REV_AT_EPOCH": 88420, "BSTAR": 0.0010832091, "MEAN_MOTION_DOT": 5.611e-05, "MEAN_MOTION_DDOT": 0}, "tle": {"line1": "1 34521U 97051HN  25343.15883254  .00005611  00000+0  10832-2 0  9998", "line2": "2 34521  86.3799  32.1245 0001218 240.0479 120.0612 14.63316312884208"}}, "geometry": {"type": "Point", "coordinates": [-100.92763865008786, -85.06461350819869]}}, {"type": "Feature", "properties": {"norad_id": 34525, "name": "IRIDIUM 33 DEB", "group": "iridium-33-debris", "lat": -45.051785040295336, "lon": 44.532293963819505, "alt_km": 759.6948598229565, "timestamp": "2025-12-09T14:52:26.547687+00:00", "meta": {"OBJECT_NAME": "IRIDIUM 33 DEB", "OBJECT_ID": "1997-051HS", "EPOCH": "2025-12-08T10:52:50.630592", "MEAN_MOTION": 14.42890463, "ECCENTRICITY": 0.00066346, "INCLINATION": 86.373, "RA_OF_ASC_NODE": 48.6732, "ARG_OF_PERICENTER": 105.0702, "MEAN_ANOMALY": 275.0516, "EPHEMERIS_TYPE": 0, "CLASSIFICATION_TYPE": "U", "NORAD_CAT_ID": 34525, "ELEMENT_SET_NO": 999, "REV_AT_EPOCH": 88026, "BSTAR": 0.00067150553, "MEAN_MOTION_DOT": 2.262e-05, "MEAN_MOTION_DDOT": 0}, "tle": {"line1": "1 34525U 97051HS  25342.45336378  .00002262  00000+0  67151-3 0  9990", "line2": "2 34525  86.3730  48.6732 0006634 105.0702 275.0516 14.42890463880263"}}, "geometry": {"type": "Point", "coordinates": [44.532293963819505, -45.051785040295336]}}]}